OBJECT_NAME,OBJECT_ID,EPOCH,MEAN_MOTION,ECCENTRICITY,INCLINATION,RA_OF_ASC_NODE,ARG_OF_PERICENTER,MEAN_ANOMALY,EPHEMERIS_TYPE,CLASSIFICATION_TYPE,NORAD_CAT_ID,ELEMENT_SET_NO,REV_AT_EPOCH,BSTAR,MEAN_MOTION_DOT,MEAN_MOTION_DDOT
ONEWEB-0365,2021-090N,2026-07-23T04:47:32.034048,13.19727047,.00021122,87.9191,297.7983,101.3286,258.8084,0,U,49291,999,23117,.14433153E-3,.71E-6,0
ONEWEB-0366,2021-090P,2026-07-23T05:04:12.857952,13.14502962,.00020095,87.8966,282.5299,96.5849,263.5510,0,U,49292,999,23229,.54500959E-3,.215E-5,0
ONEWEB-0367,2021-090Q,2026-07-23T03:32:34.292832,13.20773686,.00022371,87.9177,267.2754,100.4115,259.7271,0,U,49293,999,23457,.9019481E-5,.17E-6,0
ONEWEB-0368,2021-090R,2026-07-23T04:44:07.272960,13.20772475,.0001879,87.9166,267.2713,117.6395,242.4929,0,U,49294,999,23573,.50752335E-4,.34E-6,0
ONEWEB-0369,2021-090S,2026-07-23T04:40:42.566304,13.19727156,.00020299,87.9181,297.8042,102.8546,257.2814,0,U,49295,999,23116,.10060684E-3,.53E-6,0
ONEWEB-0370,2021-090T,2026-07-23T03:45:55.439424,13.20772369,.00022022,87.9176,267.2724,91.4758,268.6628,0,U,49296,999,23461,.75514011E-4,.44E-6,0
ONEWEB-0371,2021-090U,2026-07-23T04:52:05.462400,13.19725878,.00021133,87.9190,297.7976,100.2679,259.8692,0,U,49297,999,23120,.9698339E-4,.52E-6,0
ONEWEB-0372,2021-090V,2026-07-23T03:31:11.132832,13.20770232,.00020816,87.9178,267.2765,97.8826,262.2544,0,U,49298,999,23458,.11670063E-4,.18E-6,0
ONEWEB-0373,2021-090W,2026-07-23T04:07:44.066784,13.20769906,.00019786,87.9175,267.2708,94.8798,265.2562,0,U,49299,999,23577,-.16057133E-3,-.52E-6,0
ONEWEB-0374,2021-090X,2026-07-23T04:45:55.317024,13.14503322,.00014352,87.8965,282.5236,95.1314,264.9979,0,U,49300,999,23229,.46927183E-3,.187E-5,0
ONEWEB-0375,2021-090Y,2026-07-23T03:50:46.016448,13.20770368,.00015253,87.9177,267.2657,89.6327,270.4981,0,U,49301,999,23527,-.21818732E-3,-.76E-6,0
ONEWEB-0376,2021-090Z,2026-07-23T04:49:48.495936,13.19724212,.00021321,87.9191,297.7982,103.5359,256.6012,0,U,49302,999,23120,.18604844E-3,.87E-6,0
ONEWEB-0377,2021-090AA,2026-07-23T03:31:33.811968,13.20769580,.00017332,87.9177,267.2702,96.0882,264.0449,0,U,49303,999,23526,.8931938E-5,.17E-6,0
ONEWEB-0378,2021-090AB,2026-07-23T04:00:40.667040,13.20772457,.00019617,87.9171,267.2694,101.5357,258.5996,0,U,49304,999,23453,-.8595577E-4,-.22E-6,0
ONEWEB-0379,2021-090AC,2026-07-23T04:39:05.036256,13.14502934,.00018848,87.8962,282.5346,99.6470,260.4872,0,U,49305,999,23229,.39640589E-3,.16E-5,0
ONEWEB-0380,2021-090AD,2026-07-23T04:45:15.541920,13.19727140,.000192,87.9182,297.8011,94.7852,265.3500,0,U,49306,999,23117,.11314339E-3,.58E-6,0
ONEWEB-0381,2021-090AE,2026-07-23T03:26:31.269408,13.20770288,.00017919,87.9178,267.2761,95.2077,264.9260,0,U,49307,999,23457,.10881451E-3,.57E-6,0
ONEWEB-0382,2021-090AF,2026-07-23T04:56:14.051616,13.20771978,.00017479,87.9176,267.2568,98.9498,261.1833,0,U,49308,999,23457,.25722299E-3,.118E-5,0
ONEWEB-0383,2021-090AG,2026-07-23T04:29:56.653728,13.14503687,.00019023,87.8962,282.5281,102.6848,257.4494,0,U,49309,999,23232,.41641408E-4,.28E-6,0
ONEWEB-0384,2021-090AH,2026-07-23T04:38:13.588512,13.20815404,.00016191,87.9180,267.3037,104.4722,255.6591,0,U,49310,999,23458,.20718541E-3,.97E-6,0
ONEWEB-0385,2021-090AJ,2026-07-23T04:46:31.813248,13.20771317,.00018673,87.9175,267.2637,97.1250,263.0096,0,U,49311,999,23455,.24961722E-3,.114E-5,0
ONEWEB-0386,2021-090AK,2026-07-23T03:21:40.247424,13.20770155,.00018562,87.9179,267.2679,100.8008,259.3334,0,U,49312,999,23456,.39057792E-4,.29E-6,0
ONEWEB-0387,2021-090AL,2026-07-23T04:48:57.173472,13.20771703,.00018919,87.9168,267.2732,88.4515,271.6835,0,U,49313,999,23457,.31138106E-3,.14E-5,0
ONEWEB-0388,2021-090AM,2026-07-23T04:38:26.705760,13.19724435,.00018712,87.9184,297.8002,101.4443,258.6900,0,U,49314,999,23116,.46999171E-4,.32E-6,0
ONEWEB-0389,2021-132A,2026-07-21T16:10:10.155360,13.17648404,.00016113,87.9154,359.0078,84.9807,275.1509,0,U,50469,999,22262,.11735356E-3,.58E-6,0
ONEWEB-0390,2021-132B,2026-07-22T15:54:07.625664,13.17648064,.00020857,87.9150,358.8126,89.9803,270.1568,0,U,50470,999,22275,.25428949E-3,.112E-5,0
ONEWEB-0391,2021-132C,2026-07-21T16:15:01.746720,13.17648020,.000176,87.9155,359.0182,67.6479,292.4839,0,U,50471,999,22262,.14600292E-4,.19E-6,0
ONEWEB-0392,2021-132D,2026-07-23T03:36:23.272704,13.17648190,.00015894,87.9157,358.6969,84.9620,275.1693,0,U,50472,999,22285,.55482148E-4,.34E-6,0
ONEWEB-0393,2021-132E,2026-07-22T19:43:47.055360,13.17648122,.00017233,87.9154,358.7759,89.0779,271.0550,0,U,50473,999,22280,.11464167E-3,.57E-6,0
ONEWEB-0394,2021-132F,2026-07-22T18:14:30.065280,13.18685679,.00017693,87.9202,328.3703,100.2568,259.8764,0,U,50474,999,22628,.10864395E-3,.56E-6,0
