ONEWEB-0365             
1 49291U 21090N   26204.19967632  .00000071  00000+0  14433-3 0  9999
2 49291  87.9191 297.7983 0002112 101.3286 258.8084 13.19727047231174
ONEWEB-0366             
1 49292U 21090P   26204.21125993  .00000215  00000+0  54501-3 0  9999
2 49292  87.8966 282.5299 0002009  96.5849 263.5510 13.14502962232294
ONEWEB-0367             
1 49293U 21090Q   26204.14761913  .00000017  00000+0  90195-5 0  9991
2 49293  87.9177 267.2754 0002237 100.4115 259.7271 13.20773686234574
ONEWEB-0368             
1 49294U 21090R   26204.19730640  .00000034  00000+0  50752-4 0  9993
2 49294  87.9166 267.2713 0001879 117.6395 242.4929 13.20772475235732
ONEWEB-0369             
1 49295U 21090S   26204.19493711  .00000053  00000+0  10061-3 0  9998
2 49295  87.9181 297.8042 0002029 102.8546 257.2814 13.19727156231160
ONEWEB-0370             
1 49296U 21090T   26204.15689166  .00000044  00000+0  75514-4 0  9991
2 49296  87.9176 267.2724 0002202  91.4758 268.6628 13.20772369234614
ONEWEB-0371             
1 49297U 21090U   26204.20284100  .00000052  00000+0  96983-4 0  9999
2 49297  87.9190 297.7976 0002113 100.2679 259.8692 13.19725878231206
ONEWEB-0372             
1 49298U 21090V   26204.14665663  .00000018  00000+0  11670-4 0  9992
2 49298  87.9178 267.2765 0002081  97.8826 262.2544 13.20770232234584
ONEWEB-0373             
1 49299U 21090W   26204.17203781 -.00000052  00000+0 -16057-3 0  9998
2 49299  87.9175 267.2708 0001978  94.8798 265.2562 13.20769906235779
ONEWEB-0374             
1 49300U 21090X   26204.19855691  .00000187  00000+0  46927-3 0  9992
2 49300  87.8965 282.5236 0001435  95.1314 264.9979 13.14503322232293
ONEWEB-0375             
1 49301U 21090Y   26204.16025482 -.00000076  00000+0 -21819-3 0  9999
2 49301  87.9177 267.2657 0001525  89.6327 270.4981 13.20770368235278
ONEWEB-0376             
1 49302U 21090Z   26204.20125574  .00000087  00000+0  18605-3 0  9997
2 49302  87.9191 297.7982 0002132 103.5359 256.6012 13.19724212231205
ONEWEB-0377             
1 49303U 21090AA  26204.14691912  .00000017  00000+0  89319-5 0  9990
2 49303  87.9177 267.2702 0001733  96.0882 264.0449 13.20769580235261
ONEWEB-0378             
1 49304U 21090AB  26204.16713735 -.00000022  00000+0 -85956-4 0  9991
2 49304  87.9171 267.2694 0001961 101.5357 258.5996 13.20772457234539
ONEWEB-0379             
1 49305U 21090AC  26204.19380829  .00000160  00000+0  39641-3 0  9999
2 49305  87.8962 282.5346 0001884  99.6470 260.4872 13.14502934232298
ONEWEB-0380             
1 49306U 21090AD  26204.19809655  .00000058  00000+0  11314-3 0  9996
2 49306  87.9182 297.8011 0001920  94.7852 265.3500 13.19727140231174
ONEWEB-0381             
1 49307U 21090AE  26204.14341747  .00000057  00000+0  10881-3 0  9992
2 49307  87.9178 267.2761 0001791  95.2077 264.9260 13.20770288234572
ONEWEB-0382             
1 49308U 21090AF  26204.20571819  .00000118  00000+0  25722-3 0  9993
2 49308  87.9176 267.2568 0001747  98.9498 261.1833 13.20771978234576
ONEWEB-0383             
1 49309U 21090AG  26204.18746127  .00000028  00000+0  41641-4 0  9996
2 49309  87.8962 282.5281 0001902 102.6848 257.4494 13.14503687232321
ONEWEB-0384             
1 49310U 21090AH  26204.19321283  .00000097  00000+0  20719-3 0  9999
2 49310  87.9180 267.3037 0001619 104.4722 255.6591 13.20815404234580
ONEWEB-0385             
1 49311U 21090AJ  26204.19897932  .00000114  00000+0  24962-3 0  9993
2 49311  87.9175 267.2637 0001867  97.1250 263.0096 13.20771317234553
ONEWEB-0386             
1 49312U 21090AK  26204.14004916  .00000029  00000+0  39058-4 0  9999
2 49312  87.9179 267.2679 0001856 100.8008 259.3334 13.20770155234568
ONEWEB-0387             
1 49313U 21090AL  26204.20066173  .00000140  00000+0  31138-3 0  9994
2 49313  87.9168 267.2732 0001891  88.4515 271.6835 13.20771703234574
ONEWEB-0388             
1 49314U 21090AM  26204.19336465  .00000032  00000+0  46999-4 0  9999
2 49314  87.9184 297.8002 0001871 101.4443 258.6900 13.19724435231164
ONEWEB-0389             
1 50469U 21132A   26202.67372865  .00000058  00000+0  11735-3 0  9991
2 50469  87.9154 359.0078 0001611  84.9807 275.1509 13.17648404222628
ONEWEB-0390             
1 50470U 21132B   26203.66258826  .00000112  00000+0  25429-3 0  9999
2 50470  87.9150 358.8126 0002085  89.9803 270.1568 13.17648064222750
ONEWEB-0391             
1 50471U 21132C   26202.67710355  .00000019  00000+0  14600-4 0  9996
2 50471  87.9155 359.0182 0001760  67.6479 292.4839 13.17648020222628
ONEWEB-0392             
1 50472U 21132D   26204.15026936  .00000034  00000+0  55482-4 0  9997
2 50472  87.9157 358.6969 0001589  84.9620 275.1693 13.17648190222857
ONEWEB-0393             
1 50473U 21132E   26203.82207240  .00000057  00000+0  11464-3 0  9996
2 50473  87.9154 358.7759 0001723  89.0779 271.0550 13.17648122222801
ONEWEB-0394             
1 50474U 21132F   26203.76007020  .00000056  00000+0  10864-3 0  9996
2 50474  87.9202 328.3703 0001769 100.2568 259.8764 13.18685679226286
